{"type": "FeatureCollection", "features": [ {"type": "Feature", "properties": {"norad_id": 35661, "name": "COSMOS 2251 DEB", "group": "cosmos-2251-debris", "lat": 55.2040314261766, "lon": 85.15300233983274, "alt_km": 616.7566552900234, "timestamp": "2025-12-22T05:49:03.897690+00:00", "meta": {"OBJECT_NAME": "COSMOS 2251 DEB", "OBJECT_ID": "1993-036APC", "EPOCH": "2025-12-20T14:47:28.734720", "MEAN_MOTION": 14.86678361, "ECCENTRICITY": 0.0087122, "INCLINATION": 74.014, "RA_OF_ASC_NODE": 64.0291, "ARG_OF_PERICENTER": 166.2472, "MEAN_ANOMALY": 194.1112, "EPHEMERIS_TYPE": 0, "CLASSIFICATION_TYPE": "U", "NORAD_CAT_ID": 35661, "ELEMENT_SET_NO": 999, "REV_AT_EPOCH": 87985, "BSTAR": 0.00048658, "MEAN_MOTION_DOT": 4.598e-05, "MEAN_MOTION_DDOT": 0}, "tle": {"line1": "1 35661U 93036APC 25354.61630480  .00004598  00000+0  48658-3 0  9998", "line2": "2 35661  74.0140  64.0291 0087122 166.2472 194.1112 14.86678361879855"}}, "geometry": {"type": "Point", "coordinates": [85.15300233983274, 55.2040314261766]}}, {"type": "Feature", "properties": {"norad_id": 35663, "name": "COSMOS 2251 DEB", "group": "cosmos-2251-debris", "lat": -46.293504612094196, "lon": 88.90292193127377, "alt_km": 683.4421487759082, "timestamp": "2025-12-22T05:49:03.897700+00:00", "meta": {"OBJECT_NAME": "COSMOS 2251 DEB", "OBJECT_ID": "1993-036APE", "EPOCH": "2025-12-19T23:59:07.553472", "MEAN_MOTION": 14.65779868, "ECCENTRICITY": 0.00057705, "INCLINATION": 74.0195, "RA_OF_ASC_NODE": 110.6712, "ARG_OF_PERICENTER": 187.908, "MEAN_ANOMALY": 172.1999, "EPHEMERIS_TYPE": 0, "CLASSIFICATION_TYPE": "U", "NORAD_CAT_ID": 35663, "ELEMENT_SET_NO": 999, "REV_AT_EPOCH": 73488, "BSTAR": 0.0009843987, "MEAN_MOTION_DOT": 5.342e-05, "MEAN_MOTION_DDOT": 0}, "tle": {"line1": "1 35663U 93036APE 25353.99939298  .00005342  00000+0  98440-3 0  9991", "line2": "2 35663  74.0195 110.6712 0005770 187.9080 172.1999 14.65779868734880"}}, "geometry": {"type": "Point", "coordinates": [88.90292193127377, -46.293504612094196]}}, {"type": "Feature", "properties": {"norad_id": 35667, "name": "COSMOS 2251 DEB", "group": "cosmos-2251-debris", "lat": 13.821668882023735, "lon": -62.03941865687559, "alt_km": 680.4094579362036, "timestamp": "2025-12-22T05:49:03.897710+00:00", "meta": {"OBJECT_NAME": "COSMOS 2251 DEB", "OBJECT_ID": "1993-036APJ", "EPOCH": "2025-12-21T01:06:26.178912", "MEAN_MOTION": 14.60101094, "ECCENTRICITY": 0.00192171, "INCLINATION": 74.055, "RA_OF_ASC_NODE": 124.2734, "ARG_OF_PERICENTER": 183.7599, "MEAN_ANOMALY": 176.3426, "EPHEMERIS_TYPE": 0, "CLASSIFICATION_TYPE": "U", "NORAD_CAT_ID": 35667, "ELEMENT_SET_NO": 999, "REV_AT_EPOCH": 70924, "BSTAR": 0.00075939759, "MEAN_MOTION_DOT": 3.634e-05, "MEAN_MOTION_DDOT": 0}, "tle": {"line1": "1 35667U 93036APJ 25355.04613633  .00003634  00000+0  75940-3 0  9997", "line2": "2 35667  74.0550 124.2734 0019217 183.7599 176.3426 14.60101094709242"}}, "geometry": {"type": "Point", "coordinates": [-62.03941865687559, 13.821668882023735]}}, {"type": "Feature", "properties": {"norad_id": 35668, "name": "COSMOS 2251 DEB", "group": "cosmos-2251-debris", "lat": 51.738522492539936, "lon": -136.4467497401873, "alt_km": 694.5548940095277, "timestamp": "2025-12-22T05:49:03.897720+00:00", "meta": {"OBJECT_NAME": "COSMOS 2251 DEB", "OBJECT_ID": "1993-036APK", "EPOCH": "2025-12-20T22:24:32.418720", "MEAN_MOTION": 14.64007061, "ECCENTRICITY": 0.0083512, "INCLINATION": 74.0434, "RA_OF_ASC_NODE": 204.7932, "ARG_OF_PERICENTER": 307.9538, "MEAN_ANOMALY": 51.4103, "EPHEMERIS_TYPE": 0, "CLASSIFICATION_TYPE": "U", "NORAD_CAT_ID": 35668, "ELEMENT_SET_NO": 999, "REV_AT_EPOCH": 87767, "BSTAR": 0.00015511, "MEAN_MOTION_DOT": 8.21e-06, "MEAN_MOTION_DDOT": 0}, "tle": {"line1": "1 35668U 93036APK 25354.93370855  .00000821  00000+0  15511-3 0  9994", "line2": "2 35668  74.0434 204.7932 0083512 307.9538  51.4103 14.64007061877671"}}, "geometry": {"type": "Point", "coordinates": [-136.4467497401873, 51.738522492539936]}}, {"type": "Feature", "properties": {"norad_id": 35669, "name": "COSMOS 2251 DEB", "group": "cosmos-2251-debris", "lat": -14.005613413066719, "lon": 139.74882517200123, "alt_km": 1046.2762911998389, "timestamp": "2025-12-22T05:49:03.897730+00:00", "meta": {"OBJECT_NAME": "COSMOS 2251 DEB", "OBJECT_ID": "1993-036APL", "EPOCH": "2025-12-20T02:35:15.805248", "MEAN_MOTION": 13.57168765, "ECCENTRICITY": 0.03877863, "INCLINATION": 73.8603, "RA_OF_ASC_NODE": 147.3718, "ARG_OF_PERICENTER": 257.91, "MEAN_ANOMALY": 97.8317, "EPHEMERIS_TYPE": 0, "CLASSIFICATION_TYPE": "U", "NORAD_CAT_ID": 35669, "ELEMENT_SET_NO": 999, "REV_AT_EPOCH": 60889, "BSTAR": 0.00066721827, "MEAN_MOTION_DOT": 7.5e-06, "MEAN_MOTION_DDOT": 0}, "tle": {"line1": "1 35669U 93036APL 25354.10782182  .00000750  00000+0  66722-3 0  9995", "line2": "2 35669  73.8603 147.3718 0387786 257.9100  97.8317 13.57168765608897"}}, "geometry": {"type": "Point", "coordinates": [139.74882517200123, -14.005613413066719]}}, {"type": "Feature", "properties": {"norad_id": 35670, "name": "COSMOS 2251 DEB", "group": "cosmos-2251-debris", "lat": -66.2734703074432, "lon": 4.091599078621977, "alt_km": 585.3783531006693, "timestamp": "2025-12-22T05:49:03.897741+00:00", "meta": {"OBJECT_NAME": "COSMOS 2251 DEB", "OBJECT_ID": "1993-036APM", "EPOCH": "2025-12-19T10:38:44.466144", "MEAN_MOTION": 14.94072625, "ECCENTRICITY": 0.0038179, "INCLINATION": 73.895, "RA_OF_ASC_NODE": 50.8731, "ARG_OF_PERICENTER": 9.8443, "MEAN_ANOMALY": 350.3478, "EPHEMERIS_TYPE": 0, "CLASSIFICATION_TYPE": "U", "NORAD_CAT_ID": 35670, "ELEMENT_SET_NO": 999, "REV_AT_EPOCH": 87827, "BSTAR": 0.00080624, "MEAN_MOTION_DOT": 8.707e-05, "MEAN_MOTION_DDOT": 0}, "tle": {"line1": "1 35670U 93036APM 25353.44357021  .00008707  00000+0  80624-3 0  9990", "line2": "2 35670  73.8950  50.8731 0038179   9.8443 350.3478 14.94072625878277"}}, "geometry": {"type": "Point", "coordinates": [4.091599078621977, -66.2734703074432]}}, {"type": "Feature", "properties": {"norad_id": 35671, "name": "COSMOS 2251 DEB", "group": "cosmos-2251-debris", "lat": -61.17911208435433, "lon": -87.10845452860937, "alt_km": 708.9942533046333, "timestamp": "2025-12-22T05:49:03.897751+00:00", "meta": {"OBJECT_NAME": "COSMOS 2251 DEB", "OBJECT_ID": "1993-036APN", "EPOCH": "2025-12-17T12:02:51.877248", "MEAN_MOTION": 14.48356669, "ECCENTRICITY": 0.00414327, "INCLINATION": 74.0178, "RA_OF_ASC_NODE": 70.3857, "ARG_OF_PERICENTER": 243.6268, "MEAN_ANOMALY": 134.9759, "EPHEMERIS_TYPE": 0, "CLASSIFICATION_TYPE": "U", "NORAD_CAT_ID": 35671, "ELEMENT_SET_NO": 999, "REV_AT_EPOCH": 86832, "BSTAR": 0.00018080216, "MEAN_MOTION_DOT": 6.55e-06, "MEAN_MOTION_DDOT": 0}, "tle": {"line1": "1 35671U 93036APN 25351.50198932  .00000655  00000+0  18080-3 0  9991", "line2": "2 35671  74.0178  70.3857 0041432 243.6268 134.9759 14.48356669868323"}}, "geometry": {"type": "Point", "coordinates": [-87.10845452860937, -61.17911208435433]}}, {"type": "Feature", "properties": {"norad_id": 35674, "name": "COSMOS 2251 DEB", "group": "cosmos-2251-debris", "lat": -35.06692480877985, "lon": -73.00886160927041, "alt_km": 652.3665989407382, "timestamp": "2025-12-22T05:49:03.897761+00:00", "meta": {"OBJECT_NAME": "COSMOS 2251 DEB", "OBJECT_ID": "1993-036APR", "EPOCH": "2025-12-21T20:04:39.177120", "MEAN_MOTION": 14.5433686, "ECCENTRICITY": 0.0096239, "INCLINATION": 74.061, "RA_OF_ASC_NODE": 299.3295, "ARG_OF_PERICENTER": 342.0403, "MEAN_ANOMALY": 17.7366, "EPHEMERIS_TYPE": 0, "CLASSIFICATION_TYPE": "U", "NORAD_CAT_ID": 35674, "ELEMENT_SET_NO": 999, "REV_AT_EPOCH": 86243, "BSTAR": 0.0014888, "MEAN_MOTION_DOT": 6.7e-05, "MEAN_MOTION_DDOT": 0}, "tle": {"line1": "1 35674U 93036APR 25355.83656455  .00006700  00000+0  14888-2 0  9991", "line2": "2 35674  74.0610 299.3295 0096239 342.0403  17.7366 14.54336860862432"}}, "geometry": {"type": "Point", "coordinates": [-73.00886160927041, -35.06692480877985]}}, {"type": "Feature", "properties": {"norad_id": 35701, "name": "COSMOS 2251 DEB", "group": "cosmos-2251-debris", "lat": -70.53464209985988, "lon": -127.85143250119307, "alt_km": 1144.851634394132, "timestamp": "2025-12-22T05:49:03.897771+00:00", "meta": {"OBJECT_NAME": "COSMOS 2251 DEB", "OBJECT_ID": "1993-036APW", "EPOCH": "2025-12-06T05:57:57.623904", "MEAN_MOTION": 13.80843435, "ECCENTRICITY": 0.02897209, "INCLINATION": 74.0028, "RA_OF_ASC_NODE": 313.2955, "ARG_OF_PERICENTER": 164.0681, "MEAN_ANOMALY": 196.98, "EPHEMERIS_TYPE": 0, "CLASSIFICATION_TYPE": "U", "NORAD_CAT_ID": 35701, "ELEMENT_SET_NO": 999, "REV_AT_EPOCH": 62069, "BSTAR": 0.0021223911, "MEAN_MOTION_DOT": 3.05e-05, "MEAN_MOTION_DDOT": 0}, "tle": {"line1": "1 35701U 93036APW 25340.24858361  .00003050  00000+0  21224-2 0  9998", "line2": "2 35701  74.0028 313.2955 0289720 164.0681 196.9800 13.80843435620696"}}, "geometry": {"type": "Point", "coordinates": [-127.85143250119307, -70.53464209985988]}}, {"type": "Feature", "properties": {"norad_id": 35703, "name": "COSMOS 2251 DEB", "group": "cosmos-2251-debris", "lat": 70.83584673633544, "lon": 79.16921215356093, "alt_km": 545.2305592379889, "timestamp": "2025-12-22T05:49:03.897781+00:00", "meta": {"OBJECT_NAME": "COSMOS 2251 DEB", "OBJECT_ID": "1993-036APY", "EPOCH": "2025-12-21T19:48:02.001024", "MEAN_MOTION": 14.90447063, "ECCENTRICITY": 0.006444, "INCLINATION": 74.0415, "RA_OF_ASC_NODE": 24.5791, "ARG_OF_PERICENTER": 91.498, "MEAN_ANOMALY": 269.3585, "EPHEMERIS_TYPE": 0, "CLASSIFICATION_TYPE": "U", "NORAD_CAT_ID": 35703, "ELEMENT_SET_NO": 999, "REV_AT_EPOCH": 66751, "BSTAR": 0.00048187, "MEAN_MOTION_DOT": 4.852e-05, "MEAN_MOTION_DDOT": 0}, "tle": {"line1": "1 35703U 93036APY 25355.82502316  .00004852  00000+0  48187-3 0  9995", "line2": "2 35703  74.0415  24.5791 0064440  91.4980 269.3585 14.90447063667519"}}, "geometry": {"type": "Point", "coordinates": [79.16921215356093, 70.83584673633544]}}]}